NORAD_CAT_ID,OBJECT_NAME,OBJECT_TYPE,EPOCH,MEAN_MOTION,ECCENTRICITY,INCLINATION,RA_OF_ASC_NODE,ARG_OF_PERICENTER,MEAN_ANOMALY,BSTAR,MEAN_MOTION_DOT,MEAN_MOTION_DDOT,TLE_LINE0,TLE_LINE1,TLE_LINE2,SEMIMAJOR_AXIS,PERIOD,APOGEE,PERIGEE,DECAYED
51740.0,STARLINK-3500,PAYLOAD,2022-10-21 10:50:04,15.08844668,0.0002063,53.2178,104.3154,50.7331,309.3844,1.2615e-05,-8.7e-07,0.0,0 STARLINK-3500,1 51740U 22016AC  22294.45144117 -.00000087  00000-0  12615-4 0  9999,2 51740  53.2178 104.3154 0002063  50.7331 309.3844 15.08844668 38140,6917.866,95.437,541.158,538.304,0.0
51740.0,STARLINK-3500,PAYLOAD,2022-10-22 04:19:17,15.08858726,0.0002086999999999,53.2178,101.0447,51.7429,308.375,-3.0657e-05,-7.76e-06,0.0,0 STARLINK-3500,1 51740U 22016AC  22295.18006911 -.00000776  00000-0 -30657-4 0  9991,2 51740  53.2178 101.0447 0002087  51.7429 308.3750 15.08858726 38251,6917.823,95.436,541.132,538.244,0.0
51740.0,STARLINK-3500,PAYLOAD,2022-10-22 10:40:50,15.08847134,0.0002194,53.2167,99.8547,51.9352,308.1838,8.4246e-05,1.053e-05,0.0,0 STARLINK-3500,1 51740U 22016AC  22295.44503196  .00001053  00000-0  84246-4 0  9997,2 51740  53.2167  99.8547 0002194  51.9352 308.1838 15.08847134 38290,6917.859,95.437,541.241,538.206,0.0
51740.0,STARLINK-3500,PAYLOAD,2022-10-22 20:13:10,15.08837781,0.0002109999999999,53.2178,98.071,51.6412,308.4770000000001,2.0496e-06,-2.56e-06,0.0,0 STARLINK-3500,1 51740U 22016AC  22295.84248030 -.00000256  00000-0  20496-5 0  9997,2 51740  53.2178  98.0710 0002110  51.6412 308.4770 15.08837781 38359,6917.887,95.438,541.212,538.2919999999998,0.0
51740.0,STARLINK-3500,PAYLOAD,2022-10-23 10:31:37,15.08843825,0.0002041999999999,53.219,95.3942,51.2338,308.8836,3.8648e-05,3.27e-06,0.0,0 STARLINK-3500,1 51740U 22016AC  22296.43863318  .00000327  00000-0  38648-4 0  9990,2 51740  53.2190  95.3942 0002042  51.2338 308.8836 15.08843825 37382,6917.869000000002,95.437,541.146,538.321,0.0
51740.0,STARLINK-3500,PAYLOAD,2022-10-23 20:03:52,15.08897745,0.0002465,53.2184,93.6114,48.613,311.5074,0.00037999,5.774e-05,0.0,0 STARLINK-3500,1 51740U 22016AC  22296.83602117  .00005774  00000-0  37999-3 0  9990,2 51740  53.2184  93.6114 0002465  48.6130 311.5074 15.08897745 38506,6917.704000000002,95.434,541.274,537.864,0.0
51740.0,STARLINK-3500,PAYLOAD,2022-10-24 04:00:49,15.08865926,0.0002435999999999,53.2193,92.1228,52.5809,307.5404,0.00019135,2.7600000000000014e-05,0.0,0 STARLINK-3500,1 51740U 22016AC  22297.16723906  .00002760  00000-0  19135-3 0  9991,2 51740  53.2193  92.1228 0002436  52.5809 307.5404 15.08865926 38554,6917.801,95.436,541.351,537.981,0.0
51740.0,STARLINK-3500,PAYLOAD,2022-10-24 10:22:24,15.08834466,0.0001896,53.219,90.9337,48.0135,312.1019,-9.2708e-05,-1.763e-05,0.0,0 STARLINK-3500,1 51740U 22016AC  22297.43222375 -.00001763  00000-0 -92708-4 0  9997,2 51740  53.2190  90.9337 0001896  48.0135 312.1019 15.08834466 38592,6917.897,95.438,541.0740000000002,538.451,0.0
51740.0,STARLINK-3500,PAYLOAD,2022-10-24 19:54:42,15.08833227,0.0002165,53.2182,89.1499,46.972,313.1453,-3.9323e-05,-9.14e-06,0.0,0 STARLINK-3500,1 51740U 22016AC  22297.82966308 -.00000914  00000-0 -39323-4 0  9992,2 51740  53.2182  89.1499 0002165  46.9720 313.1453 15.08833227 37595,6917.901,95.438,541.264,538.268,0.0
51740.0,STARLINK-3500,PAYLOAD,2022-10-25 03:51:38,15.08837223,0.0002383,53.2186,87.6637,44.7396,315.3788,-5.4134e-05,-1.15e-05,0.0,0 STARLINK-3500,1 51740U 22016AC  22298.16086135 -.00001150  00000-0 -54134-4 0  9991,2 51740  53.2186  87.6637 0002383  44.7396 315.3788 15.08837223 38702,6917.889,95.438,541.4019999999998,538.105,0.0
51740.0,STARLINK-3500,PAYLOAD,2022-10-25 10:13:10,15.08853302,0.0002282,53.2185,86.4741,52.6253,307.4947,-0.00024606,-4.204e-05,0.0,0 STARLINK-3500,1 51740U 22016AC  22298.42581884 -.00004204  00000-0 -24606-3 0  9994,2 51740  53.2185  86.4741 0002282  52.6253 307.4947 15.08853302 38741,6917.84,95.437,541.283,538.126,0.0
51740.0,STARLINK-3500,PAYLOAD,2022-10-25 19:45:29,15.08848844,0.0002245,53.2185,84.69,50.3349,309.7841,-0.00022641,-3.891e-05,0.0,0 STARLINK-3500,1 51740U 22016AC  22298.82325783 -.00003891  00000-0 -22641-3 0  9990,2 51740  53.2185  84.6900 0002245  50.3349 309.7841 15.08848844 37740,6917.853,95.437,541.271,538.165,0.0
51740.0,STARLINK-3500,PAYLOAD,2022-10-26 08:28:33,15.08904171,0.0002773999999999,53.2184,82.3111,45.0383,315.0834,-0.0010390999999999,-0.00016818,0.0,0 STARLINK-3500,1 51740U 22016AC  22299.35316032 -.00016818  00000-0 -10391-2 0  9997,2 51740  53.2184  82.3111 0002774  45.0383 315.0834 15.08904171 38888,6917.684,95.433,541.4680000000002,537.63,0.0
51740.0,STARLINK-3500,PAYLOAD,2022-10-26 16:25:30,15.08825164,0.0002262,53.2186,80.8243,44.1863,315.931,2.9901e-05,1.87e-06,0.0,0 STARLINK-3500,1 51740U 22016AC  22299.68438405  .00000187  00000-0  29901-4 0  9991,2 51740  53.2186  80.8243 0002262  44.1863 315.9310 15.08825164 37874,6917.926,95.438,541.356,538.226,0.0
51740.0,STARLINK-3500,PAYLOAD,2022-10-27 01:57:49,15.08833159,0.0002279999999999,53.2188,79.0403,43.8002,316.317,6.8284e-05,7.98e-06,0.0,0 STARLINK-3500,1 51740U 22016AC  22300.08182044  .00000798  00000-0  68284-4 0  9998,2 51740  53.2188  79.0403 0002280  43.8002 316.3170 15.08833159 38991,6917.901,95.438,541.344,538.189,0.0
51740.0,STARLINK-3500,PAYLOAD,2022-10-27 09:54:45,15.08833715,0.0002021999999999,53.2189,77.5524,48.0271,312.0893,8.018099999999999e-06,-1.61e-06,0.0,0 STARLINK-3500,1 51740U 22016AC  22300.41302343 -.00000161  00000-0  80181-5 0  9997,2 51740  53.2189  77.5524 0002022  48.0271 312.0893 15.08833715 37989,6917.9,95.438,541.163,538.366,0.0
51740.0,STARLINK-3500,PAYLOAD,2022-10-27 16:16:18,15.08830392,0.0002188,53.2181,76.3636,42.7465,317.3697,-2.574e-05,-6.98e-06,0.0,0 STARLINK-3500,1 51740U 22016AC  22300.67798852 -.00000698  00000-0 -25740-4 0  9994,2 51740  53.2181  76.3636 0002188  42.7465 317.3697 15.08830392 39082,6917.91,95.438,541.288,538.261,0.0
51740.0,STARLINK-3500,PAYLOAD,2022-10-28 12:56:18,15.0883948,0.0002208,53.2183,72.4973,36.3257,323.7884,5.4896e-05,5.85e-06,0.0,0 STARLINK-3500,1 51740U 22016AC  22301.53910508  .00000585  00000-0  54896-4 0  9991,2 51740  53.2183  72.4973 0002208  36.3257 323.7884 15.08839480 38159,6917.882,95.438,541.274,538.22,0.0
51740.0,STARLINK-3500,PAYLOAD,2022-10-28 16:07:05,15.08838585,0.0002218,53.2184,71.9025,36.8177,323.2967,2.9582e-05,1.83e-06,0.0,0 STARLINK-3500,1 51740U 22016AC  22301.67158685  .00000183  00000-0  29582-4 0  9994,2 51740  53.2184  71.9025 0002218  36.8177 323.2967 15.08838585 39231,6917.885,95.438,541.284,538.215,0.0
51740.0,STARLINK-3500,PAYLOAD,2022-10-29 01:39:23,15.0883994,0.0002064,53.2187,70.1184,42.3908,317.7243,6.3474e-05,7.22e-06,0.0,0 STARLINK-3500,1 51740U 22016AC  22302.06902497  .00000722  00000-0  63474-4 0  9993,2 51740  53.2187  70.1184 0002064  42.3908 317.7243 15.08839940 38234,6917.880999999999,95.438,541.173,538.318,0.0
51740.0,STARLINK-3500,PAYLOAD,2022-10-29 17:33:14,15.08838238,0.0002329,53.2183,67.1446,37.0167,323.0985,0.00015618,2.198e-05,0.0,0 STARLINK-3500,1 51740U 22016AC  22302.73142282  .00002198  00000-0  15618-3 0  9990,2 51740  53.2183  67.1446 0002329  37.0167 323.0985 15.08838238 39399,6917.886,95.438,541.362,538.14,0.0
51740.0,STARLINK-3500,PAYLOAD,2022-10-30 01:30:09,15.08854012,0.0002334999999999,53.2193,65.6586,38.925,321.191,0.00012753,1.743e-05,0.0,0 STARLINK-3500,1 51740U 22016AC  22303.06261236  .00001743  00000-0  12753-3 0  9990,2 51740  53.2193  65.6586 0002335  38.9250 321.1910 15.08854012 38381,6917.8380000000025,95.437,541.318,538.087,0.0
51740.0,STARLINK-3500,PAYLOAD,2022-10-30 17:24:01,15.08845274,0.0001878,53.2186,62.6838,27.0227,333.0863,4.4945e-05,4.27e-06,0.0,0 STARLINK-3500,1 51740U 22016AC  22303.72501515  .00000427  00000-0  44945-4 0  9997,2 51740  53.2186  62.6838 0001878  27.0227 333.0863 15.08845274 38484,6917.864000000001,95.437,541.028,538.43,0.0
51740.0,STARLINK-3500,PAYLOAD,2022-10-31 07:42:30,15.08835475,0.0002796999999999,53.2147,60.0088,44.4934,315.6282,-7.2515e-05,-1.442e-05,0.0,0 STARLINK-3500,1 51740U 22016AC  22304.32118951 -.00001442  00000-0 -72515-4 0  9996,2 51740  53.2147  60.0088 0002797  44.4934 315.6282 15.08835475 38572,6917.894,95.438,541.694,537.8240000000002,0.0
51740.0,STARLINK-3500,PAYLOAD,2022-10-31 20:25:35,15.08839402,0.0002418,53.217,57.631,39.032,321.0846,-0.00013357,-2.414e-05,0.0,0 STARLINK-3500,1 51740U 22016AC  22304.85110905 -.00002414  00000-0 -13357-3 0  9993,2 51740  53.2170  57.6310 0002418  39.0320 321.0846 15.08839402 38657,6917.882,95.438,541.42,538.0740000000002,0.0
51740.0,STARLINK-3500,PAYLOAD,2022-11-01 07:33:16,15.08837838,0.0001601,53.2191,55.5475,9.6543,350.4479,4.6455e-05,4.51e-06,0.0,0 STARLINK-3500,1 51740U 22016AC  22305.31477857  .00000451  00000-0  46455-4 0  9990,2 51740  53.2191  55.5475 0001601   9.6543 350.4479 15.08837838 39786,6917.887,95.438,540.86,538.644,0.0
51740.0,STARLINK-3500,PAYLOAD,2022-11-01 13:54:47,15.08890401,0.0002494,53.2177,54.3591,33.9001,326.215,-0.00053123,-8.745e-05,0.0,0 STARLINK-3500,1 51740U 22016AC  22305.57972067 -.00008745  00000-0 -53123-3 0  9996,2 51740  53.2177  54.3591 0002494  33.9001 326.2150 15.08890401 38765,6917.726,95.434,541.317,537.866,0.0
51740.0,STARLINK-3500,PAYLOAD,2022-11-01 17:05:35,15.08837144,0.0002443,53.2185,53.7657,33.982,326.1328,0.00014939,2.09e-05,0.0,0 STARLINK-3500,1 51740U 22016AC  22305.71221881  .00002090  00000-0  14939-3 0  9990,2 51740  53.2185  53.7657 0002443  33.9820 326.1328 15.08837144 38786,6917.889,95.438,541.444,538.064,0.0
51740.0,STARLINK-3500,PAYLOAD,2022-11-02 13:45:37,15.08809665,0.0001943999999999,53.2187,49.8996,24.8407,335.2678,0.00050529,7.756e-05,0.0,0 STARLINK-3500,1 51740U 22016AC  22306.57335034  .00007756  00000-0  50529-3 0  9990,2 51740  53.2187  49.8996 0001944  24.8407 335.2678 15.08809665 39973,6917.973000000001,95.439,541.183,538.493,0.0
